STARLINK-33960          
1 63966U 25099Q   25220.55985490  .00013595  00000+0  50239-3 0  9995
2 63966  42.9972 299.6166 0001739 267.4790  92.5863 15.27596196 14749
STARLINK-34153          
1 63967U 25099R   25220.68415547 -.01087656  00000+0 -44206-1 0  9998
2 63967  43.0029 298.8335 0001106 308.1838  51.8914 15.26841328 14764
STARLINK-33963          
1 63968U 25099S   25220.49189897  .00011949  00000+0  44287-3 0  9994
2 63968  43.0009 299.9681 0001646 269.0129  91.0534 15.27593049 14642
STARLINK-34112          
1 63969U 25099T   25220.54957748  .00014504  00000+0  53532-3 0  9992
2 63969  43.0015 299.5424 0001189 270.8877  89.1838 15.27595186 14642
STARLINK-34084          
1 63970U 25099U   25220.93804002  .00023436  00000+0  85789-3 0  9994
2 63970  43.0057 297.2990 0001868 274.9757  85.0882 15.27601367 14800
STARLINK-34138          
1 63971U 25099V   25220.90269009  .00017210  00000+0  63282-3 0  9991
2 63971  43.0000 294.4266 0000804 274.9290  85.1470 15.27613943 14835
STARLINK-34115          
1 63972U 25099W   25220.69625073  .00019525  00000+0  71656-3 0  9990
2 63972  43.0016 295.4597 0002499 286.3697  73.6880 15.27606348 14806
STARLINK-34028          
1 63973U 25099X   25220.59503957  .00021956  00000+0  80453-3 0  9992
2 63973  42.9982 296.4259 0000935 350.7465   9.3369 15.27599282 14687
STARLINK-33942          
1 63974U 25099Y   25220.65656821  .00013593  00000+0  50252-3 0  9991
2 63974  43.0006 296.0231 0001115 261.5932  98.4793 15.27582950 14798
STARLINK-34139          
1 63975U 25099Z   25220.91425360  .00018728  00000+0  68794-3 0  9998
2 63975  42.9993 294.5151 0001741 272.3994  87.6658 15.27599940 14741
STARLINK-34090          
1 63976U 25099AA  25220.51808272  .00013061  00000+0  48313-3 0  9992
2 63976  43.0003 296.7002 0001653 279.3136  80.7529 15.27593135 14686
STARLINK-34105          
1 63977U 25099AB  25220.90782976  .00018057  00000+0  66371-3 0  9992
2 63977  42.9990 294.4648 0001314 279.7245  80.3458 15.27598986 14743
STARLINK-33642          
1 63978U 25099AC  25220.90012343  .00021878  00000+0  80195-3 0  9992
2 63978  43.0003 294.4038 0001272 273.8565  86.2141 15.27589907 14744
STARLINK-34045          
1 63979U 25099AD  25220.70010557  .00021484  00000+0  78761-3 0  9995
2 63979  42.9987 295.4806 0001267 265.3481  94.7226 15.27594215 14718
UNICORN-2O              
1 63980U 25052BS  25220.66730423  .00032377  00000+0  14545-2 0  9994
2 63980  97.4252 113.3913 0006047  86.5237 273.6690 15.21068352 22354
UNICORN-2P              
1 63981U 25052BT  25220.66889691  .00003834  00000+0  17590-3 0  9997
2 63981  97.4126 113.3711 0008643 108.0329 252.1849 15.20991147 22351
SCS-01 A                
1 63982U 25100A   25220.93000900  .00010467  00000+0  49493-3 0  9997
2 63982  97.4035 294.9561 0010002  29.9677 330.2129 15.19524314 13185
SCS-01 B                
1 63983U 25100B   25220.85732355  .00014115  00000+0  62824-3 0  9992
2 63983  97.4029 295.0460 0011899 328.5984  31.4540 15.21518309 13168
SCS-01 C                
1 63984U 25100C   25220.93110595  .00010472  00000+0  49547-3 0  9997
2 63984  97.4032 294.9502 0010142  28.8931 331.2864 15.19501574 13163
SCS-01 D                
1 63985U 25100D   25220.90579044  .00017533  00000+0  82385-3 0  9995
2 63985  97.4037 294.9930 0009674 318.9330  41.1175 15.19623785 13169
SCS-01 E                
1 63986U 25100E   25220.93202726  .00016367  00000+0  77593-3 0  9998
2 63986  97.4004 294.9187 0012404 327.1559  32.8904 15.19304386 13168
SCS-01 F                
1 63987U 25100F   25220.92523204  .00016670  00000+0  79044-3 0  9995
2 63987  97.4007 295.0820 0010650 333.4343  26.6345 15.19310802 13171
SCS-01 G                
1 63988U 25100G   25220.92522150  .00004764  00000+0  20867-3 0  9995
2 63988  97.4047 295.2798 0012965 331.1847  28.8672 15.22423478 13183
SCS-01 H                
1 63989U 25100H   25220.90868993  .00017729  00000+0  82561-3 0  9996
2 63989  97.4057 295.0121 0012296 329.3921  30.6596 15.19906954 13167
SCS-01 J                
1 63990U 25100J   25220.90601056  .00017788  00000+0  83143-3 0  9995
2 63990  97.4002 294.9536 0009728 325.9222  34.1388 15.19803925 13149
SCS-01 K                
1 63991U 25100K   25220.59328800  .00014488  00000+0  64199-3 0  9998
2 63991  97.4008 294.7643 0012291 342.3080  17.7726 15.21659483 13118
SCS-01 L                
1 63992U 25100L   25220.72566837  .00015065  00000+0  66740-3 0  9994
2 63992  97.4037 294.9247 0011195 329.4517  30.6066 15.21670450 13125
SCS-01 M                
1 63993U 25100M   25220.90627292  .00018152  00000+0  84852-3 0  9992
2 63993  97.4035 294.9901 0011993 340.6168  19.4609 15.19774368 13155
STARLINK-33871          
1 63994U 25101A   25220.73984616  .00021627  00000+0  79253-3 0  9991
2 63994  42.9946 120.9037 0001165 136.6686 223.4257 15.27603883 14416
STARLINK-34154          
1 63995U 25101B   25220.12309747  .00027449  00000+0  10032-2 0  9998
2 63995  43.0052 124.0214 0002336 272.6507  87.4077 15.27582124 14392
STARLINK-34158          
1 63996U 25101C   25220.76926081  .00032952  00000+0  12008-2 0  9995
2 63996  43.0018 120.3121 0000974 248.4751 111.5997 15.27602922 14499
STARLINK-34165          
1 63997U 25101D   25220.69230363  .00024141  00000+0  88385-3 0  9992
2 63997  42.9956 120.5464 0000242 348.8679  11.2167 15.27581638 14487
STARLINK-34150          
1 63998U 25101E   25220.14363874  .00021335  00000+0  78166-3 0  9995
2 63998  43.0014 124.1737 0001633 259.2535 100.8133 15.27618148 14394
STARLINK-34169          
1 63999U 25101F   25220.44103791  .00028053  00000+0  10244-2 0  9995
2 63999  43.0040 122.1028 0000732 314.4313  45.6478 15.27601967 14447
STARLINK-34152          
1 64000U 25101G   25220.77439738  .00016643  00000+0  61273-3 0  9999
2 64000  43.0029 120.3052 0000756  18.8065 341.2814 15.27592178 14497
STARLINK-33927          
1 64001U 25101H   25220.42191133  .00029401  00000+0  10734-2 0  9997
2 64001  43.0001 122.8235 0000816 344.0495  16.0331 15.27588648 14438
STARLINK-33898          
1 64002U 25101J   25220.41420488  .00025902  00000+0  94747-3 0  9994
2 64002  42.9998 122.7629 0000943 324.9272  35.1518 15.27580360 14431
STARLINK-33928          
1 64003U 25101K   25220.75255042  .00034203  00000+0  12466-2 0  9995
2 64003  42.9998 120.1367 0000586 249.8433 110.2356 15.27581786 14494
STARLINK-33758          
1 64004U 25101L   25220.13466097  .00033859  00000+0  12331-2 0  9999
2 64004  43.0057 124.1055 0001878 268.2049  91.8588 15.27611357 14392
STARLINK-33936          
1 64005U 25101M   25220.77182702  .00020782  00000+0  76221-3 0  9998
2 64005  43.0005 120.2867 0000697 341.5195  18.5631 15.27595991 14490
STARLINK-33931          
1 64006U 25101N   25220.16535166  .00026164  00000+0  95651-3 0  9996
2 64006  43.0000 123.4679 0001467 266.5681  93.5003 15.27594867 14424
STARLINK-33759          
1 64007U 25101P   25220.76411650  .00020123  00000+0  73838-3 0  9996
2 64007  42.9984 120.2227 0001679  47.4215 312.6778 15.27597412 14492
STARLINK-34163          
1 64008U 25101Q   25219.94362511  .00028557  00000+0  10420-2 0  9992
2 64008  43.0007 125.2456 0000736 280.3359  79.7409 15.27619197 14295
STARLINK-34077          
1 64009U 25101R   25220.43589451  .00017984  00000+0  66126-3 0  9990
2 64009  43.0016 122.0565 0000771 306.0411  54.0369 15.27589384 14448
STARLINK-34113          
1 64010U 25101S   25219.95135484  .00025902  00000+0  94723-3 0  9993
2 64010  42.9982 125.3031 0001005 266.6410  93.4327 15.27588641 14317
STARLINK-34193          
1 64011U 25101T   25220.08084250  .00012316  00000+0  45622-3 0  9993
2 64011  43.0000 124.5525 0001427 262.3096  97.7594 15.27586449 14385
STARLINK-34078          
1 64012U 25101U   25220.76025376  .00015415  00000+0  56812-3 0  9999
2 64012  43.0011 120.1903 0001489 267.2517  92.8164 15.27602041 14498
STARLINK-34182          
1 64013U 25101V   25220.73776764  .00033267  00000+0  12123-2 0  9992
2 64013  42.9996 117.4229 0000944 176.7470 183.3388 15.27598344 14524
STARLINK-34192          
1 64014U 25101W   25220.74369906  .00017650  00000+0  64903-3 0  9992
2 64014  42.9978 120.9282 0000887 213.4539 146.6256 15.27597914 14487
STARLINK-34093          
1 64015U 25101X   25220.76668217  .00025774  00000+0  94249-3 0  9994
2 64015  42.9974 120.2386 0000536 213.9491 146.1326 15.27593277 14497
STARLINK-34016          
1 64016U 25101Y   25220.76154855  .00059102  00000+0  21364-2 0  9992
2 64016  43.0035 120.1957 0002509 269.0063  91.0501 15.27635458 14491
STARLINK-34161          
1 64017U 25101Z   25220.77053713  .00019336  00000+0  70979-3 0  9997
2 64017  43.0031 120.2669 0000764  31.5980 328.4917 15.27606327 14491
STARLINK-34162          
1 64018U 25101AA  25220.12952214  .00009809  00000+0  36547-3 0  9998
2 64018  43.0041 124.0576 0001553 261.7960  98.2715 15.27581826 14397
STARLINK-34155          
1 64019U 25101AB  25220.13723428  .00020990  00000+0  76986-3 0  9998
2 64019  43.0021 124.1159 0000985 284.3439  75.7304 15.27591592 14399
STARLINK-34141          
1 64020U 25101AC  25220.13339398  .00036578  00000+0  13319-2 0  9998
2 64020  43.0060 124.0869 0001646 294.9783  65.0897 15.27586589 14394
STARLINK-34062          
1 64021U 25101AD  25220.43846587  .00020301  00000+0  74487-3 0  9996
2 64021  43.0013 122.0730 0000697 300.7401  59.3382 15.27594932 14448
STARLINK-34051          
1 64022U 25102A   25220.93549446  .00004408  00000+0  37690-3 0  9992
2 64022  70.0002 290.8825 0004072 268.3001  91.7691 14.98339191 14086
STARLINK-34184          
1 64023U 25102B   25220.61822671  .00002754  00000+0  23850-3 0  9997
2 64023  70.0007 291.7789 0004108 269.0370  91.0318 14.98335706 14041
STARLINK-34087          
1 64024U 25102C   25220.91863139  .00004421  00000+0  37792-3 0  9998
2 64024  70.0002 290.8183 0003641 271.2764  88.7978 14.98341141 13974
